LUCH (OLYMP-K 1)        
1 40258U 14058A   24179.90607212 -.00000138  00000+0  00000+0 0  9998
2 40258   0.1303  96.5556 0002408 297.0495 190.9723  1.00272836 33785
HIMAWARI-8              
1 40267U 14060A   24180.19910382 -.00000272  00000+0  00000+0 0  9998
2 40267   0.0442 204.0518 0001251 276.8267   8.2217  1.00272751 35652
IRNSS-1C                
1 40269U 14061A   24179.94563333 -.00000159  00000+0  00000+0 0  9996
2 40269   4.6973 104.4818 0021813   6.1147 229.2848  1.00274274 35619
INTELSAT 30 (IS-30)     
1 40271U 14062A   24172.40535441 -.00000129  00000+0  00000+0 0  9990
2 40271   0.0106   4.1402 0001640 350.3247 325.5072  1.00270657 35302
ARSAT 1                 
1 40272U 14062B   24179.87536747 -.00000256  00000+0  00000+0 0  9990
2 40272   0.0159 341.8624 0001557 115.3263  62.5844  1.00269184 35401
EXPRESS-AM6             
1 40277U 14064A   24180.08730035  .00000101  00000+0  00000+0 0  9996
2 40277   0.0131 356.4802 0001010 150.9233 213.6855  1.00273205 35468
GSAT-16                 
1 40332U 14078A   24179.90604909  .00000088  00000+0  00000+0 0  9996
2 40332   0.0780  99.3256 0007582 352.7026 205.7005  1.00270490 34896
DIRECTV 14              
1 40333U 14078B   24179.68469704 -.00000121  00000+0  00000+0 0  9993
2 40333   0.0111 325.1415 0000158  73.8651  24.5273  1.00270581 34849
YAMAL 401               
1 40345U 14082A   24180.12222573 -.00000225  00000+0  00000+0 0  9998
2 40345   0.0184 334.7182 0000278 333.9924 101.9320  1.00273140 35203
ASTRA 2G                
1 40364U 14089A   24179.91716079  .00000153  00000+0  00000+0 0  9999
2 40364   0.0411  13.4762 0004754  57.3222 204.0412  1.00270424 34751
FENGYUN 2G              
1 40367U 14090A   24179.83787972 -.00000299  00000+0  00000+0 0  9997
2 40367   3.8172  81.4265 0003241 112.0500 124.1886  1.00265024 34825
MUOS-3                  
1 40374U 15002A   24179.88664150 -.00000126  00000+0  00000+0 0  9995
2 40374   3.2579  35.4511 0055151 175.9835   8.7379  1.00270581 34375
INMARSAT 5-F2           
1 40384U 15005A   24179.90119119 -.00000282  00000+0  00000+0 0  9995
2 40384   0.0191  30.7645 0000316 164.7454 350.3936  1.00270380 33789
ABS-3A                  
1 40424U 15010A   24180.01368933 -.00000023  00000+0  00000+0 0  9993
2 40424   0.0351  68.3993 0001349 296.4549 273.6753  1.00270174 34168
EUTELSAT 115 WEST B     
1 40425U 15010B   24179.54726581 -.00000022  00000+0  00000+0 0  9996
2 40425   0.0085 159.4018 0000106 181.7412  17.1065  1.00274442 34178
EXPRESS-AM7             
1 40505U 15012A   24180.09285472  .00000154  00000+0  00000+0 0  9993
2 40505   0.0014  20.7416 0002856  74.4122 254.9578  1.00267909 34159
IRNSS-1D                
1 40547U 15018A   24179.62570150 -.00000277  00000+0  00000+0 0  9999
2 40547  27.4657 252.5279 0023007 191.9338 168.7861  1.00263988 33775
BEIDOU-3S IGSO-1S       
1 40549U 15019A   24172.84510329 -.00000157  00000+0  00000+0 0  9998
2 40549  50.5681 304.1498 0038536 192.5606 166.9884  1.00250064 33783
THOR 7                  
1 40613U 15022A   24179.67490681 -.00000005  00000+0  00000+0 0  9992
2 40613   0.0223 114.0209 0002630 343.7726  60.7705  1.00270837 33608
TURKMENALEM52E/MONACOSAT
1 40617U 15023A   24180.08730035  .00000108  00000+0  00000+0 0  9997
2 40617   0.0174  46.4605 0002018  60.7957 252.8612  1.00268369 33627
DIRECTV 15              
1 40663U 15026A   24180.01211737 -.00000099  00000+0  00000+0 0  9997
2 40663   0.0318  82.7029 0000412  63.9662  31.4090  1.00272026 33328
SKY MEXICO-1            
1 40664U 15026B   24180.15188191 -.00000231  00000+0  00000+0 0  9998
2 40664   0.0175  10.8625 0002112  86.6266 155.1575  1.00271674 33325
METEOSAT-11 (MSG-4)     
1 40732U 15034A   24171.59020498  .00000087  00000+0  00000+0 0  9994
2 40732   1.3918  69.1738 0001876 153.3473 267.8398  1.00279855   552
STAR ONE C4             
1 40733U 15034B   24176.01134199 -.00000254  00000+0  00000+0 0  9998
2 40733   0.0241  24.1451 0002138  47.1886 135.4020  1.00269886 32775
WGS F7 (USA 263)        
1 40746U 15036A   24179.83243667  .00000021  00000+0  00000+0 0  9999
2 40746   0.0416  58.3934 0000266 110.5348 222.1390  1.00271380 32659
INTELSAT 34 (IS-34)     
1 40874U 15039A   24179.38243706 -.00000282  00000+0  00000+0 0  9998
2 40874   0.0208   5.6795 0000815   5.6624 346.8152  1.00269342 32409
EUTELSAT 8 WEST B       
1 40875U 15039B   24179.88812088 -.00000062  00000+0  00000+0 0  9995
2 40875   0.0631 356.4912 0003573  95.1937 136.4981  1.00271347 32437
GSAT-6                  
1 40880U 15041A   24179.90611480 -.00000157  00000+0  00000+0 0  9995
2 40880   0.0601 101.3963 0003040   8.4888 215.3682  1.00271509 32383
INMARSAT 5-F3           
1 40882U 15042A   24179.83243667  .00000053  00000+0  00000+0 0  9992
2 40882   0.0191  31.7260 0000330 142.6859 221.2542  1.00269448 32349
MUOS-4                  
1 40887U 15044A   24180.07618587 -.00000091  00000+0  00000+0 0  9997
2 40887   3.1206  32.4348 0056921   2.6628 344.0245  1.00273299 32349
TJS-1                   
1 40892U 15046A   24179.84893160 -.00000153  00000+0  00000+0 0  9999
2 40892   0.0505  82.7732 0002848  27.1509 267.1439  1.00270925 32340
EXPRESS-AM8             
1 40895U 15048A   24179.67220911 -.00000108  00000+0  00000+0 0  9993
2 40895   0.0145 303.9207 0000201  70.3097 130.0211  1.00271535 32132
BEIDOU-3S IGSO-2S       
1 40938U 15053A   24178.71924488 -.00000130  00000+0  00000+0 0  9996
2 40938  50.3412 267.2958 0053074 190.5292 171.4335  1.00259905 32120
SKY MUSTER 1 (NBN1A)    
1 40940U 15054A   24179.70283693 -.00000275  00000+0  00000+0 0  9996
2 40940   0.0196 339.5550 0001840 117.5616 212.4355  1.00270580 32049
ARSAT 2                 
1 40941U 15054B   24179.86160404 -.00000221  00000+0  00000+0 0  9999
2 40941   0.0127 351.1471 0002100  97.9518  56.5124  1.00269191 32102
MORELOS 3               
1 40946U 15056A   24179.86720634 -.00000041  00000+0  00000+0 0  9993
2 40946   3.0201 352.5845 0000906 178.6142 304.3473  1.00272004 32079
APSTAR-9                
1 40982U 15059A   24179.91854909 -.00000263  00000+0  00000+0 0  9991
2 40982   0.0356 284.4751 0002521 253.9760 210.7156  1.00268561 31906
TURKSAT 4B              
1 40984U 15060A   24179.89958813  .00000118  00000+0  00000+0 0  9999
2 40984   0.0415  84.7706 0003693  12.6296 192.9006  1.00270534 31885
CHINASAT 2C (ZX 2C)     
1 41021U 15063A   24180.12492344 -.00000321  00000+0  00000+0 0  9992
2 41021   0.0497 211.7264 0004734 235.6640 338.0843  1.00266466 31809
GSAT-15                 
1 41028U 15065A   24180.12292190 -.00000254  00000+0  00000+0 0  9993
2 41028   0.0357 223.4261 0003485 223.4974 327.5394  1.00270641 31652
BADR-7 (ARABSAT-6B)     
1 41029U 15065B   24179.60859635  .00000148  00000+0  00000+0 0  9999
2 41029   0.0394 199.7654 0003764   5.0794 316.4205  1.00271393 31551
LAOSAT 1                
1 41034U 15067A   24179.92202351 -.00000340  00000+0  00000+0 0  9994
2 41034   0.0424 148.7892 0002675 268.7798 319.3813  1.00269847 31649
TELSTAR 12V             
1 41036U 15068A   24180.11855047 -.00000115  00000+0  00000+0 0  9996
2 41036   0.0173 327.4807 0002290 136.7218 200.1836  1.00271674 31517
ELEKTRO-L 2             
1 41105U 15074A   24179.60059028 -.00000115  00000+0  00000+0 0  9997
2 41105   4.8677  79.3544 0000888 140.7973 257.7780  1.00270298 31292
COSMOS 2513             
1 41121U 15075A   24180.12031123 -.00000134  00000+0  00000+0 0  9992
2 41121   0.0732 106.8369 0003366 329.6592 323.7522  1.00269385 31394
EXPRESS-AMU1            
1 41191U 15082A   24179.89680339  .00000159  00000+0  00000+0 0  9994
2 41191   0.0176  39.2928 0002689  59.9853 176.1340  1.00271006 31057
GAOFEN-4                
1 41194U 15083A   24179.57688334 -.00000332  00000+0  00000+0 0  9990
2 41194   0.1042 258.9936 0007414 286.9446  43.6553  1.00274836 31310
BELINTERSAT-1           
1 41238U 16001A   24179.89993622  .00000110  00000+0  00000+0 0  9997
2 41238   0.0177  72.4221 0001762 324.2489 255.2719  1.00270227 31029
IRNSS-1E                
1 41241U 16003A   24179.62570150 -.00000307  00000+0  00000+0 0  9990
2 41241  31.6546  73.3245 0018647 180.9549 358.9572  1.00270002 30863
EUTELSAT 9B             
1 41310U 16005A   24179.89142774  .00000065  00000+0  00000+0 0  9995
2 41310   0.0275  47.2478 0001273  59.4411 139.6991  1.00268881 30908
SES-9                   
1 41380U 16013A   24180.07618764 -.00000341  00000+0  00000+0 0  9998
2 41380   0.0309 297.1787 0002429 149.9990 325.2007  1.00268012 30540
EUTELSAT 65 WEST A      
1 41382U 16014A   24179.87670538 -.00000272  00000+0  00000+0 0  9997
2 41382   0.0466   8.0805 0002130  82.5265  76.2744  1.00270614 30331
IRNSS-1F                
1 41384U 16015A   24179.82449894  .00000162  00000+0  00000+0 0  9991
2 41384   3.5953 117.3612 0018064 183.5527 304.7780  1.00267872 30441
BEIDOU-2 IGSO-6         
1 41434U 16021A   24177.40432630 -.00000156  00000+0  00000+0 0  9990
2 41434  59.1879  45.2636 0047814 222.1604 247.7994  1.00269127 30243
IRNSS-1G                
1 41469U 16027A   24179.77224214 -.00000333  00000+0  00000+0 0  9990
2 41469   3.4659 118.5966 0005758 336.5096 228.5767  1.00262816 29965
JCSAT-2B                
1 41471U 16028A   24179.79007740 -.00000162  00000+0  00000+0 0  9999
2 41471   0.0190  23.4682 0001072  85.4734 245.8656  1.00269675 29907
THAICOM 8               
1 41552U 16031A   24180.05952252 -.00000118  00000+0  00000+0 0  9992
2 41552   0.0644  44.4095 0002477  32.5454 299.6419  1.00269471 29575
INTELSAT 31 (IS-31)     
1 41581U 16035A   24179.87075527 -.00000147  00000+0  00000+0 0  9999
2 41581   0.0186  92.8897 0000805  89.1173 312.8514  1.00269258 29470
BEIDOU-2 G7             
1 41586U 16037A   24180.07618764 -.00000351  00000+0  00000+0 0  9993
2 41586   1.9326  69.8080 0008945   7.3361 337.4666  1.00268471 29571
